{"fetched_at":"2026-03-30T06:02:59Z","count":15439,"tles":[{"name":"STARLINK-36443","line1":"1 67431U 26005AD  26087.81118752  .00020201  00000+0  74123-3 0  9994","line2":"2 67431  42.9985 129.7428 0000760 278.0587  82.0178 15.27597115 11622","category":"Starlink"}]}